{
  "type": "FeatureCollection",
  "features": [
    {
      "type": "Feature",
      "properties": {
        "norad_id": 15362,
        "name": "NOVA 3",
        "group": "nnss",
        "lat": 14.246257714647149,
        "lon": 80.55359540322979,
        "alt_km": 1160.6932248857856,
        "timestamp": "2025-12-16T23:36:36.465052+00:00",
        "meta_object_name": "NOVA 3",
        "meta_object_id": "1984-110A",
        "meta_epoch": "2025-12-16T07:31:19.708320",
        "meta_mean_motion": 13.23044988,
        "meta_eccentricity": 0.00302394,
        "meta_inclination": 90.1224,
        "meta_ra_of_asc_node": 80.5768,
        "meta_arg_of_pericenter": 321.7222,
        "meta_mean_anomaly": 101.4286,
        "meta_ephemeris_type": 0,
        "meta_classification_type": "U",
        "meta_norad_cat_id": 15362,
        "meta_element_set_no": 999,
        "meta_rev_at_epoch": 98746,
        "meta_bstar": 0.000120567,
        "meta_mean_motion_dot": 5.9e-07,
        "meta_mean_motion_ddot": 0,
        "tle_line1": "1 15362U 84110A   25350.31342255  .00000059  00000+0  12057-3 0  9992",
        "tle_line2": "2 15362  90.1224  80.5768 0030239 321.7222 101.4286 13.23044988987465"
      },
      "geometry": {
        "type": "Point",
        "coordinates": [
          80.55359540322979,
          14.246257714647149
        ]
      }
    },
    {
      "type": "Feature",
      "properties": {
        "norad_id": 15935,
        "name": "OSCAR 30",
        "group": "nnss",
        "lat": -67.610629552687,
        "lon": 100.3181770606145,
        "alt_km": 1227.1433929748237,
        "timestamp": "2025-12-16T23:36:36.465063+00:00",
        "meta_object_name": "OSCAR 30",
        "meta_object_id": "1985-066A",
        "meta_epoch": "2025-12-16T08:04:57.860256",
        "meta_mean_motion": 13.36078895,
        "meta_eccentricity": 0.01693521,
        "meta_inclination": 90.1654,
        "meta_ra_of_asc_node": 99.9059,
        "meta_arg_of_pericenter": 73.8727,
        "meta_mean_anomaly": 349.7866,
        "meta_ephemeris_type": 0,
        "meta_classification_type": "U",
        "meta_norad_cat_id": 15935,
        "meta_element_set_no": 999,
        "meta_rev_at_epoch": 96501,
        "meta_bstar": 0.0001229528,
        "meta_mean_motion_dot": 7.8e-07,
        "meta_mean_motion_ddot": 0,
        "tle_line1": "1 15935U 85066A   25350.33678079  .00000078  00000+0  12295-3 0  9992",
        "tle_line2": "2 15935  90.1654  99.9059 0169352  73.8727 349.7866 13.36078895965015"
      },
      "geometry": {
        "type": "Point",
        "coordinates": [
          100.3181770606145,
          -67.610629552687
        ]
      }
    },
    {
      "type": "Feature",
      "properties": {
        "norad_id": 15936,
        "name": "OSCAR 24",
        "group": "nnss",
        "lat": 4.892818748068972,
        "lon": 92.36504835086151,
        "alt_km": 1088.3492846505078,
        "timestamp": "2025-12-16T23:36:36.465073+00:00",
        "meta_object_name": "OSCAR 24",
        "meta_object_id": "1985-066B",
        "meta_epoch": "2025-12-16T07:41:43.721088",
        "meta_mean_motion": 13.35936296,
        "meta_eccentricity": 0.01704438,
        "meta_inclination": 90.1791,
        "meta_ra_of_asc_node": 92.3687,
        "meta_arg_of_pericenter": 80.3485,
        "meta_mean_anomaly": 339.2505,
        "meta_ephemeris_type": 0,
        "meta_classification_type": "U",
        "meta_norad_cat_id": 15936,
        "meta_element_set_no": 999,
        "meta_rev_at_epoch": 96691,
        "meta_bstar": 0.0001080672,
        "meta_mean_motion_dot": 7e-07,
        "meta_mean_motion_ddot": 0,
        "tle_line1": "1 15936U 85066B   25350.32064492  .00000070  00000+0  10807-3 0  9999",
        "tle_line2": "2 15936  90.1791  92.3687 0170443  80.3485 339.2505 13.35936296966910"
      },
      "geometry": {
        "type": "Point",
        "coordinates": [
          92.36504835086151,
          4.892818748068972
        ]
      }
    },
    {
      "type": "Feature",
      "properties": {
        "norad_id": 17070,
        "name": "POLAR BEAR",
        "group": "nnss",
        "lat": 82.53261460987093,
        "lon": -173.47268369768247,
        "alt_km": 945.7948722949186,
        "timestamp": "2025-12-16T23:36:36.465085+00:00",
        "meta_object_name": "POLAR BEAR",
        "meta_object_id": "1986-088A",
        "meta_epoch": "2025-12-16T06:35:10.801248",
        "meta_mean_motion": 13.75251491,
        "meta_eccentricity": 0.00411543,
        "meta_inclination": 89.6172,
        "meta_ra_of_asc_node": 183.6323,
        "meta_arg_of_pericenter": 109.0485,
        "meta_mean_anomaly": 64.0417,
        "meta_ephemeris_type": 0,
        "meta_classification_type": "U",
        "meta_norad_cat_id": 17070,
        "meta_element_set_no": 999,
        "meta_rev_at_epoch": 96027,
        "meta_bstar": 0.00011830041,
        "meta_mean_motion_dot": 1.26e-06,
        "meta_mean_motion_ddot": 0,
        "tle_line1": "1 17070U 86088A   25350.27443057  .00000126  00000+0  11830-3 0  9996",
        "tle_line2": "2 17070  89.6172 183.6323 0041154 109.0485  64.0417 13.75251491960272"
      },
      "geometry": {
        "type": "Point",
        "coordinates": [
          -173.47268369768247,
          82.53261460987093
        ]
      }
    },
    {
      "type": "Feature",
      "properties": {
        "norad_id": 18361,
        "name": "OSCAR 27",
        "group": "nnss",
        "lat": -57.814471789489254,
        "lon": -101.16374698480227,
        "alt_km": 1028.904259094369,
        "timestamp": "2025-12-16T23:36:36.465106+00:00",
        "meta_object_name": "OSCAR 27",
        "meta_object_id": "1987-080A",
        "meta_epoch": "2025-12-16T06:21:38.514240",
        "meta_mean_motion": 13.44907404,
        "meta_eccentricity": 0.01031841,
        "meta_inclination": 90.3742,
        "meta_ra_of_asc_node": 79.4043,
        "meta_arg_of_pericenter": 213.6126,
        "meta_mean_anomaly": 145.8449,
        "meta_ephemeris_type": 0,
        "meta_classification_type": "U",
        "meta_norad_cat_id": 18361,
        "meta_element_set_no": 999,
        "meta_rev_at_epoch": 87604,
        "meta_bstar": 0.00014533512,
        "meta_mean_motion_dot": 9.6e-07,
        "meta_mean_motion_ddot": 0,
        "tle_line1": "1 18361U 87080A   25350.26502910  .00000096  00000+0  14534-3 0  9996",
        "tle_line2": "2 18361  90.3742  79.4043 0103184 213.6126 145.8449 13.44907404876047"
      },
      "geometry": {
        "type": "Point",
        "coordinates": [
          -101.16374698480227,
          -57.814471789489254
        ]
      }
    },
    {
      "type": "Feature",
      "properties": {
        "norad_id": 18362,
        "name": "OSCAR 29",
        "group": "nnss",
        "lat": -62.647285978334914,
        "lon": -100.83569600246456,
        "alt_km": 1022.9199732321358,
        "timestamp": "2025-12-16T23:36:36.465122+00:00",
        "meta_object_name": "OSCAR 29",
        "meta_object_id": "1987-080B",
        "meta_epoch": "2025-12-16T06:36:12.818304",
        "meta_mean_motion": 13.44449062,
        "meta_eccentricity": 0.01041098,
        "meta_inclination": 90.3753,
        "meta_ra_of_asc_node": 79.8637,
        "meta_arg_of_pericenter": 236.8993,
        "meta_mean_anomaly": 177.8924,
        "meta_ephemeris_type": 0,
        "meta_classification_type": "U",
        "meta_norad_cat_id": 18362,
        "meta_element_set_no": 999,
        "meta_rev_at_epoch": 87557,
        "meta_bstar": 0.00013689229,
        "meta_mean_motion_dot": 9e-07,
        "meta_mean_motion_ddot": 0,
        "tle_line1": "1 18362U 87080B   25350.27514836  .00000090  00000+0  13689-3 0  9992",
        "tle_line2": "2 18362  90.3753  79.8637 0104109 236.8993 177.8924 13.44449062875571"
      },
      "geometry": {
        "type": "Point",
        "coordinates": [
          -100.83569600246456,
          -62.647285978334914
        ]
      }
    },
    {
      "type": "Feature",
      "properties": {
        "norad_id": 19070,
        "name": "OSCAR 23",
        "group": "nnss",
        "lat": 57.917202374784324,
        "lon": -162.963334060686,
        "alt_km": 1049.0548353547138,
        "timestamp": "2025-12-16T23:36:36.465134+00:00",
        "meta_object_name": "OSCAR 23",
        "meta_object_id": "1988-033A",
        "meta_epoch": "2025-12-16T03:25:39.004320",
        "meta_mean_motion": 13.2778761,
        "meta_eccentricity": 0.01898054,
        "meta_inclination": 90.321,
        "meta_ra_of_asc_node": 16.4981,
        "meta_arg_of_pericenter": 170.4666,
        "meta_mean_anomaly": 255.7139,
        "meta_ephemeris_type": 0,
        "meta_classification_type": "U",
        "meta_norad_cat_id": 19070,
        "meta_element_set_no": 999,
        "meta_rev_at_epoch": 82298,
        "meta_bstar": 0.00016634993,
        "meta_mean_motion_dot": 9.2e-07,
        "meta_mean_motion_ddot": 0,
        "tle_line1": "1 19070U 88033A   25350.14281255  .00000092  00000+0  16635-3 0  9996",
        "tle_line2": "2 19070  90.3210  16.4981 0189805 170.4666 255.7139 13.27787610822987"
      },
      "geometry": {
        "type": "Point",
        "coordinates": [
          -162.963334060686,
          57.917202374784324
        ]
      }
    }
  ]
}